[{"OBJECT_NAME":"ONEWEB-0125","OBJECT_ID":"2020-100P","EPOCH":"2025-08-22T11:26:09.571488","MEAN_MOTION":13.1244251,"ECCENTRICITY":0.00020096,"INCLINATION":87.8868,"RA_OF_ASC_NODE":50.0109,"ARG_OF_PERICENTER":94.5666,"MEAN_ANOMALY":265.5692,"EPHEMERIS_TYPE":0,"CLASSIFICATION_TYPE":"U","NORAD_CAT_ID":47271,"ELEMENT_SET_NO":999,"REV_AT_EPOCH":22545,"BSTAR":0.0013114093,"MEAN_MOTION_DOT":4.85e-6,"MEAN_MOTION_DDOT":0},{"OBJECT_NAME":"ONEWEB-0126","OBJECT_ID":"2020-100Q","EPOCH":"2025-08-20T21:31:17.368320","MEAN_MOTION":13.12443366,"ECCENTRICITY":0.0001646,"INCLINATION":87.8874,"RA_OF_ASC_NODE":50.3455,"ARG_OF_PERICENTER":91.9935,"MEAN_ANOMALY":268.1382,"EPHEMERIS_TYPE":0,"CLASSIFICATION_TYPE":"U","NORAD_CAT_ID":47272,"ELEMENT_SET_NO":999,"REV_AT_EPOCH":22531,"BSTAR":-0.00070964,"MEAN_MOTION_DOT":-2.43e-6,"MEAN_MOTION_DDOT":0},{"OBJECT_NAME":"ONEWEB-0127","OBJECT_ID":"2020-100R","EPOCH":"2025-08-20T18:52:16.627584","MEAN_MOTION":13.12442953,"ECCENTRICITY":0.0001586,"INCLINATION":87.8866,"RA_OF_ASC_NODE":50.3817,"ARG_OF_PERICENTER":89.768,"MEAN_ANOMALY":270.363,"EPHEMERIS_TYPE":0,"CLASSIFICATION_TYPE":"U","NORAD_CAT_ID":47273,"ELEMENT_SET_NO":999,"REV_AT_EPOCH":22532,"BSTAR":0.001154,"MEAN_MOTION_DOT":4.28e-6,"MEAN_MOTION_DDOT":0},{"OBJECT_NAME":"ONEWEB-0128","OBJECT_ID":"2020-100S","EPOCH":"2025-08-22T11:40:10.334208","MEAN_MOTION":13.12441429,"ECCENTRICITY":0.00016225,"INCLINATION":87.8863,"RA_OF_ASC_NODE":50.0677,"ARG_OF_PERICENTER":83.5241,"MEAN_ANOMALY":276.6072,"EPHEMERIS_TYPE":0,"CLASSIFICATION_TYPE":"U","NORAD_CAT_ID":47274,"ELEMENT_SET_NO":999,"REV_AT_EPOCH":22556,"BSTAR":0.0010868925,"MEAN_MOTION_DOT":4.04e-6,"MEAN_MOTION_DDOT":0},{"OBJECT_NAME":"ONEWEB-0129","OBJECT_ID":"2020-100T","EPOCH":"2025-08-20T18:54:36.915264","MEAN_MOTION":13.12442898,"ECCENTRICITY":7.45e-5,"INCLINATION":87.8864,"RA_OF_ASC_NODE":50.3503,"ARG_OF_PERICENTER":123.9003,"MEAN_ANOMALY":236.2196,"EPHEMERIS_TYPE":0,"CLASSIFICATION_TYPE":"U","NORAD_CAT_ID":47275,"ELEMENT_SET_NO":999,"REV_AT_EPOCH":22527,"BSTAR":0.0013062,"MEAN_MOTION_DOT":4.83e-6,"MEAN_MOTION_DDOT":0},{"OBJECT_NAME":"ONEWEB-0130","OBJECT_ID":"2020-100U","EPOCH":"2025-08-20T21:24:05.933376","MEAN_MOTION":13.12442006,"ECCENTRICITY":0.0001664,"INCLINATION":87.8858,"RA_OF_ASC_NODE":50.3273,"ARG_OF_PERICENTER":87.3621,"MEAN_ANOMALY":272.7698,"EPHEMERIS_TYPE":0,"CLASSIFICATION_TYPE":"U","NORAD_CAT_ID":47276,"ELEMENT_SET_NO":999,"REV_AT_EPOCH":22525,"BSTAR":-2.1852e-5,"MEAN_MOTION_DOT":5.0e-8,"MEAN_MOTION_DDOT":0},{"OBJECT_NAME":"ONEWEB-0131","OBJECT_ID":"2020-100V","EPOCH":"2025-08-22T11:44:51.167040","MEAN_MOTION":13.12441897,"ECCENTRICITY":0.00017517,"INCLINATION":87.8868,"RA_OF_ASC_NODE":50.0374,"ARG_OF_PERICENTER":87.3945,"MEAN_ANOMALY":272.7384,"EPHEMERIS_TYPE":0,"CLASSIFICATION_TYPE":"U","NORAD_CAT_ID":47277,"ELEMENT_SET_NO":999,"REV_AT_EPOCH":22550,"BSTAR":0.00089731964,"MEAN_MOTION_DOT":3.36e-6,"MEAN_MOTION_DDOT":0},{"OBJECT_NAME":"ONEWEB-0132","OBJECT_ID":"2020-100W","EPOCH":"2025-08-20T22:01:28.307136","MEAN_MOTION":13.12443494,"ECCENTRICITY":0.000195,"INCLINATION":87.8864,"RA_OF_ASC_NODE":50.353,"ARG_OF_PERICENTER":88.7013,"MEAN_ANOMALY":271.4339,"EPHEMERIS_TYPE":0,"CLASSIFICATION_TYPE":"U","NORAD_CAT_ID":47278,"ELEMENT_SET_NO":999,"REV_AT_EPOCH":22519,"BSTAR":-0.0006777,"MEAN_MOTION_DOT":-2.31e-6,"MEAN_MOTION_DDOT":0},{"OBJECT_NAME":"ONEWEB-0133","OBJECT_ID":"2020-100X","EPOCH":"2025-08-22T11:00:15.413472","MEAN_MOTION":13.12443639,"ECCENTRICITY":0.00017651,"INCLINATION":87.8854,"RA_OF_ASC_NODE":50.0179,"ARG_OF_PERICENTER":85.4953,"MEAN_ANOMALY":274.6377,"EPHEMERIS_TYPE":0,"CLASSIFICATION_TYPE":"U","NORAD_CAT_ID":47279,"ELEMENT_SET_NO":999,"REV_AT_EPOCH":22555,"BSTAR":-3.703624e-5,"MEAN_MOTION_DOT":-1.0e-8,"MEAN_MOTION_DDOT":0},{"OBJECT_NAME":"ONEWEB-0134","OBJECT_ID":"2020-100Y","EPOCH":"2025-08-20T21:40:26.710752","MEAN_MOTION":13.12442345,"ECCENTRICITY":0.0001545,"INCLINATION":87.8861,"RA_OF_ASC_NODE":50.3132,"ARG_OF_PERICENTER":83.7493,"MEAN_ANOMALY":276.3811,"EPHEMERIS_TYPE":0,"CLASSIFICATION_TYPE":"U","NORAD_CAT_ID":47280,"ELEMENT_SET_NO":999,"REV_AT_EPOCH":22532,"BSTAR":-0.0010892,"MEAN_MOTION_DOT":-3.79e-6,"MEAN_MOTION_DDOT":0},{"OBJECT_NAME":"ONEWEB-0135","OBJECT_ID":"2020-100Z","EPOCH":"2025-08-20T17:18:50.022720","MEAN_MOTION":13.12443886,"ECCENTRICITY":0.000156,"INCLINATION":87.8865,"RA_OF_ASC_NODE":50.3893,"ARG_OF_PERICENTER":75.8852,"MEAN_ANOMALY":284.2449,"EPHEMERIS_TYPE":0,"CLASSIFICATION_TYPE":"U","NORAD_CAT_ID":47281,"ELEMENT_SET_NO":999,"REV_AT_EPOCH":22532,"BSTAR":0.0012707,"MEAN_MOTION_DOT":4.7e-6,"MEAN_MOTION_DDOT":0},{"OBJECT_NAME":"ONEWEB-0136","OBJECT_ID":"2020-100AA","EPOCH":"2025-08-20T21:26:25.227456","MEAN_MOTION":13.12443345,"ECCENTRICITY":0.0001338,"INCLINATION":87.8867,"RA_OF_ASC_NODE":50.3235,"ARG_OF_PERICENTER":81.26,"MEAN_ANOMALY":278.868,"EPHEMERIS_TYPE":0,"CLASSIFICATION_TYPE":"U","NORAD_CAT_ID":47282,"ELEMENT_SET_NO":999,"REV_AT_EPOCH":22527,"BSTAR":-0.00024513,"MEAN_MOTION_DOT":-7.5e-7,"MEAN_MOTION_DDOT":0},{"OBJECT_NAME":"ONEWEB-0137","OBJECT_ID":"2020-100AB","EPOCH":"2025-08-20T20:25:42.580128","MEAN_MOTION":13.12443194,"ECCENTRICITY":0.0001744,"INCLINATION":87.8864,"RA_OF_ASC_NODE":50.3379,"ARG_OF_PERICENTER":97.0147,"MEAN_ANOMALY":263.118,"EPHEMERIS_TYPE":0,"CLASSIFICATION_TYPE":"U","NORAD_CAT_ID":47283,"ELEMENT_SET_NO":999,"REV_AT_EPOCH":22517,"BSTAR":0.00023361,"MEAN_MOTION_DOT":9.7e-7,"MEAN_MOTION_DDOT":0},{"OBJECT_NAME":"ONEWEB-0138","OBJECT_ID":"2020-100AC","EPOCH":"2025-08-20T21:45:06.454080","MEAN_MOTION":13.12441576,"ECCENTRICITY":0.0001638,"INCLINATION":87.8863,"RA_OF_ASC_NODE":50.3368,"ARG_OF_PERICENTER":89.2573,"MEAN_ANOMALY":270.8743,"EPHEMERIS_TYPE":0,"CLASSIFICATION_TYPE":"U","NORAD_CAT_ID":47284,"ELEMENT_SET_NO":999,"REV_AT_EPOCH":22526,"BSTAR":-0.0013725,"MEAN_MOTION_DOT":-4.81e-6,"MEAN_MOTION_DDOT":0},{"OBJECT_NAME":"ONEWEB-0139","OBJECT_ID":"2020-100AD","EPOCH":"2025-08-20T19:01:50.601792","MEAN_MOTION":13.12443183,"ECCENTRICITY":0.0001739,"INCLINATION":87.8858,"RA_OF_ASC_NODE":50.3522,"ARG_OF_PERICENTER":90.1383,"MEAN_ANOMALY":269.9944,"EPHEMERIS_TYPE":0,"CLASSIFICATION_TYPE":"U","NORAD_CAT_ID":47285,"ELEMENT_SET_NO":999,"REV_AT_EPOCH":22532,"BSTAR":0.0014973,"MEAN_MOTION_DOT":5.51e-6,"MEAN_MOTION_DDOT":0},{"OBJECT_NAME":"ONEWEB-0140","OBJECT_ID":"2020-100AE","EPOCH":"2025-08-20T21:35:46.102560","MEAN_MOTION":13.12440749,"ECCENTRICITY":0.0001638,"INCLINATION":87.8857,"RA_OF_ASC_NODE":50.3143,"ARG_OF_PERICENTER":88.3781,"MEAN_ANOMALY":271.7535,"EPHEMERIS_TYPE":0,"CLASSIFICATION_TYPE":"U","NORAD_CAT_ID":47286,"ELEMENT_SET_NO":999,"REV_AT_EPOCH":22530,"BSTAR":-0.0010132,"MEAN_MOTION_DOT":-3.52e-6,"MEAN_MOTION_DDOT":0},{"OBJECT_NAME":"ONEWEB-0141","OBJECT_ID":"2020-100AF","EPOCH":"2025-08-20T19:01:25.131936","MEAN_MOTION":13.12444996,"ECCENTRICITY":0.0001781,"INCLINATION":87.885,"RA_OF_ASC_NODE":50.3523,"ARG_OF_PERICENTER":101.1237,"MEAN_ANOMALY":259.0092,"EPHEMERIS_TYPE":0,"CLASSIFICATION_TYPE":"U","NORAD_CAT_ID":47287,"ELEMENT_SET_NO":999,"REV_AT_EPOCH":22527,"BSTAR":0.0013712,"MEAN_MOTION_DOT":5.06e-6,"MEAN_MOTION_DDOT":0}]
