ONEWEB-0125             
1 47271U 20100P   25234.47649967  .00000485  00000+0  13114-2 0  9990
2 47271  87.8868  50.0109 0002009  94.5666 265.5692 13.12442510225456
ONEWEB-0126             
1 47272U 20100Q   25232.89672880 -.00000243  00000+0 -70964-3 0  9996
2 47272  87.8874  50.3455 0001646  91.9935 268.1382 13.12443366225317
ONEWEB-0127             
1 47273U 20100R   25232.78630356  .00000428  00000+0  11540-2 0  9994
2 47273  87.8866  50.3817 0001586  89.7680 270.3630 13.12442953225329
ONEWEB-0128             
1 47274U 20100S   25234.48623072  .00000404  00000+0  10869-2 0  9998
2 47274  87.8863  50.0677 0001622  83.5241 276.6072 13.12441429225566
ONEWEB-0129             
1 47275U 20100T   25232.78792726  .00000483  00000+0  13062-2 0  9998
2 47275  87.8864  50.3503 0000745 123.9003 236.2196 13.12442898225277
ONEWEB-0130             
1 47276U 20100U   25232.89173534  .00000005  00000+0 -21852-4 0  9990
2 47276  87.8858  50.3273 0001664  87.3621 272.7698 13.12442006225256
ONEWEB-0131             
1 47277U 20100V   25234.48948110  .00000336  00000+0  89732-3 0  9994
2 47277  87.8868  50.0374 0001751  87.3945 272.7384 13.12441897225500
ONEWEB-0132             
1 47278U 20100W   25232.91768874 -.00000231  00000+0 -67770-3 0  9992
2 47278  87.8864  50.3530 0001950  88.7013 271.4339 13.12443494225192
ONEWEB-0133             
1 47279U 20100X   25234.45851173 -.00000001  00000+0 -37036-4 0  9997
2 47279  87.8854  50.0179 0001765  85.4953 274.6377 13.12443639225557
ONEWEB-0134             
1 47280U 20100Y   25232.90308693 -.00000379  00000+0 -10892-2 0  9998
2 47280  87.8861  50.3132 0001545  83.7493 276.3811 13.12442345225325
ONEWEB-0135             
1 47281U 20100Z   25232.72141230  .00000470  00000+0  12707-2 0  9998
2 47281  87.8865  50.3893 0001560  75.8852 284.2449 13.12443886225328
ONEWEB-0136             
1 47282U 20100AA  25232.89334754 -.00000075  00000+0 -24513-3 0  9994
2 47282  87.8867  50.3235 0001338  81.2600 278.8680 13.12443345225276
ONEWEB-0137             
1 47283U 20100AB  25232.85118727  .00000097  00000+0  23361-3 0  9993
2 47283  87.8864  50.3379 0001744  97.0147 263.1180 13.12443194225178
ONEWEB-0138             
1 47284U 20100AC  25232.90632470 -.00000481  00000+0 -13725-2 0  9997
2 47284  87.8863  50.3368 0001638  89.2573 270.8743 13.12441576225266
ONEWEB-0139             
1 47285U 20100AD  25232.79294678  .00000551  00000+0  14973-2 0  9991
2 47285  87.8858  50.3522 0001739  90.1383 269.9944 13.12443183225320
ONEWEB-0140             
1 47286U 20100AE  25232.89983915 -.00000352  00000+0 -10132-2 0  9996
2 47286  87.8857  50.3143 0001638  88.3781 271.7535 13.12440749225308
ONEWEB-0141             
1 47287U 20100AF  25232.79265199  .00000506  00000+0  13712-2 0  9999
2 47287  87.8850  50.3523 0001781 101.1237 259.0092 13.12444996225274
